OBJECT_NAME,OBJECT_ID,EPOCH,MEAN_MOTION,ECCENTRICITY,INCLINATION,RA_OF_ASC_NODE,ARG_OF_PERICENTER,MEAN_ANOMALY,EPHEMERIS_TYPE,CLASSIFICATION_TYPE,NORAD_CAT_ID,ELEMENT_SET_NO,REV_AT_EPOCH,BSTAR,MEAN_MOTION_DOT,MEAN_MOTION_DDOT
CHUANGXIN 1-02 (CX-1-02),2008-056B,2026-05-12T23:11:30.605280,14.30145454,.00131109,98.6165,159.5808,241.6904,118.2956,0,U,33434,999,91358,.19784439E-4,.7E-7,0
STARS (KUKAI),2009-002G,2026-05-12T19:51:14.186592,14.95499702,.00070607,98.1530,78.7048,292.2000,67.8471,0,U,33498,999,93319,.15978765E-3,.1707E-4,0
KKS-1 (KISEKI),2009-002H,2026-05-12T21:40:31.132704,14.83029089,.00090427,98.1195,54.7887,51.3553,308.8468,0,U,33499,999,93096,.10672938E-3,.813E-5,0
UK-DMC 2,2009-041C,2026-05-12T21:44:59.244864,14.75970883,.00016755,97.8778,268.7469,79.7713,280.3686,0,U,35683,999,90136,.4720311E-4,.275E-5,0
OCEANSAT-2,2009-051A,2026-05-12T22:57:58.917888,13.99648355,.00151617,98.2298,123.3289,340.9305,19.1292,0,U,35931,999,87440,.77316588E-4,.75E-6,0
SWISSCUBE,2009-051B,2026-05-12T05:57:59.624064,14.62409745,.0006254,98.4058,39.5092,336.3034,23.7877,0,U,35932,999,88390,.13145E-3,.616E-5,0
BEESAT-1,2009-051C,2026-05-12T10:40:35.306112,14.61659829,.0005088,98.3987,39.4187,353.8769,6.2369,0,U,35933,999,88396,.11131E-3,.505E-5,0
ITUPSAT1,2009-051E,2026-05-12T16:17:09.307680,14.60384980,.00074812,98.4072,38.8853,359.6293,0.4899,0,U,35935,999,88355,.10587501E-3,.464E-5,0
DMSP 5D-3 F18 (USA 210),2009-057A,2026-05-12T22:10:58.209312,14.14876123,.00110436,98.9026,113.7740,357.7572,2.3550,0,U,35951,999,85460,.13235747E-3,.211E-5,0
PROBA-2,2009-059B,2026-05-12T23:00:09.660960,14.54846993,.00139499,98.2450,316.8005,34.5463,325.6638,0,U,36037,999,87640,.36771978E-4,.113E-5,0
YAOGAN-7,2009-069A,2026-05-12T22:51:12.668544,14.77973066,.00252228,98.0115,19.0299,150.0559,210.2100,0,U,36110,999,88442,.43436149E-4,.262E-5,0
XIWANG-1 (HOPE-1),2009-072B,2026-05-12T21:42:10.851264,13.16440001,.00071088,100.4001,87.3037,319.0581,40.9997,0,U,36122,999,78836,.75061033E-3,.242E-5,0
COSMOS 2463,2010-017A,2026-05-12T21:29:05.522784,13.71663295,.00351986,82.9587,275.6379,226.4381,246.7216,0,U,36519,999,80309,.34480038E-4,.46E-6,0
CARTOSAT-2B,2010-035A,2026-05-12T21:07:22.655712,14.78613336,.00103446,97.9982,183.6502,310.1009,49.9294,0,U,36795,999,85463,-.24057015E-4,-.229E-5,0
TISAT 1,2010-035E,2026-05-12T19:45:20.780352,15.30336159,.00035501,98.0690,76.2801,53.3797,306.7768,0,U,36799,999,86229,.41455708E-3,.12086E-3,0
YAOGAN-10,2010-038A,2026-05-12T23:42:04.059072,14.85238911,.00015427,97.9008,156.6721,92.4814,353.4519,0,U,36834,999,85198,.1508652E-3,.124E-4,0
SHIJIAN-6 04B (SJ-6 04B),2010-051B,2026-05-12T23:37:34.541184,14.99259741,.00126241,97.8736,138.0369,65.5595,294.6943,0,U,37180,999,85040,-.17648348E-4,-.277E-5,0
FENGYUN 3B,2010-059A,2026-05-12T22:57:06.054912,14.14831713,.00209923,98.9653,178.8164,287.8189,194.2399,0,U,37214,999,80244,-.14926062E-3,-.334E-5,0
COSMO-SKYMED 4,2010-060A,2026-05-12T22:23:50.426592,14.82154983,.00013818,97.8891,317.0443,82.7526,277.3844,0,U,37216,999,83934,.94079761E-4,.697E-5,0
O/OREOS (USA 219),2010-062C,2026-05-12T05:33:14.325984,14.93590845,.0013096,71.9684,161.7745,141.4160,218.7949,0,U,37224,999,11127,.1148E-3,.115E-4,0
RESOURCESAT-2,2011-015A,2026-05-12T21:32:41.298144,14.21604213,.00112019,98.7654,200.5800,5.6073,354.5227,0,U,37387,999,78116,.36447473E-4,.36E-6,0
YOUTHSAT,2011-015B,2026-05-12T22:08:08.504160,14.25614861,.00157634,98.3667,108.5715,85.7479,329.2874,0,U,37388,999,78261,.67959607E-4,.12E-5,0
APRIZESAT 6,2011-044F,2026-05-12T23:37:24.371040,14.76865918,.00426573,98.2385,42.7629,196.9082,224.9289,0,U,37793,999,79195,.58193884E-4,.358E-5,0
JUGNU,2011-058B,2026-05-11T19:48:35.247744,14.13765712,.00187238,19.9590,169.3361,35.3987,121.4144,0,U,37839,999,75387,.56032605E-4,.374E-5,0
SRMSAT,2011-058D,2026-05-12T17:27:58.603968,14.11567690,.00116857,19.9726,274.1025,173.6263,214.7014,0,U,37841,999,75280,.53461581E-4,.364E-5,0
