CHUANGXIN 1-02 (CX-1-02)
1 33434U 08056B   26132.96632645  .00000007  00000+0  19784-4 0  9990
2 33434  98.6165 159.5808 0013110 241.6904 118.2956 14.30145454913581
STARS (KUKAI)           
1 33498U 09002G   26132.82724753  .00001707  00000+0  15979-3 0  9998
2 33498  98.1530  78.7048 0007060 292.2000  67.8471 14.95499702933195
KKS-1 (KISEKI)          
1 33499U 09002H   26132.90313811  .00000813  00000+0  10673-3 0  9990
2 33499  98.1195  54.7887 0009042  51.3553 308.8468 14.83029089930967
UK-DMC 2                
1 35683U 09041C   26132.90624126  .00000275  00000+0  47203-4 0  9996
2 35683  97.8778 268.7469 0001675  79.7713 280.3686 14.75970883901362
OCEANSAT-2              
1 35931U 09051A   26132.95693192  .00000075  00000+0  77317-4 0  9994
2 35931  98.2298 123.3289 0015161 340.9305  19.1292 13.99648355874407
SWISSCUBE               
1 35932U 09051B   26132.24860676  .00000616  00000+0  13145-3 0  9999
2 35932  98.4058  39.5092 0006254 336.3034  23.7877 14.62409745883909
BEESAT-1                
1 35933U 09051C   26132.44485308  .00000505  00000+0  11131-3 0  9997
2 35933  98.3987  39.4187 0005088 353.8769   6.2369 14.61659829883964
ITUPSAT1                
1 35935U 09051E   26132.67857995  .00000464  00000+0  10588-3 0  9998
2 35935  98.4072  38.8853 0007481 359.6293   0.4899 14.60384980883551
DMSP 5D-3 F18 (USA 210) 
1 35951U 09057A   26132.92428483  .00000211  00000+0  13236-3 0  9999
2 35951  98.9026 113.7740 0011043 357.7572   2.3550 14.14876123854602
PROBA-2                 
1 36037U 09059B   26132.95844515  .00000113  00000+0  36772-4 0  9990
2 36037  98.2450 316.8005 0013949  34.5463 325.6638 14.54846993876404
YAOGAN-7                
1 36110U 09069A   26132.95222996  .00000262  00000+0  43436-4 0  9996
2 36110  98.0115  19.0299 0025222 150.0559 210.2100 14.77973066884427
XIWANG-1 (HOPE-1)       
1 36122U 09072B   26132.90429226  .00000242  00000+0  75061-3 0  9999
2 36122 100.4001  87.3037 0007108 319.0581  40.9997 13.16440001788363
COSMOS 2463             
1 36519U 10017A   26132.89520281  .00000046  00000+0  34480-4 0  9994
2 36519  82.9587 275.6379 0035198 226.4381 246.7216 13.71663295803097
CARTOSAT-2B             
1 36795U 10035A   26132.88012333 -.00000229  00000+0 -24057-4 0  9997
2 36795  97.9982 183.6502 0010344 310.1009  49.9294 14.78613336854632
TISAT 1                 
1 36799U 10035E   26132.82315718  .00012086  00000+0  41456-3 0  9991
2 36799  98.0690  76.2801 0003550  53.3797 306.7768 15.30336159862299
YAOGAN-10               
1 36834U 10038A   26132.98754698  .00001240  00000+0  15087-3 0  9996
2 36834  97.9008 156.6721 0001542  92.4814 353.4519 14.85238911851980
SHIJIAN-6 04B (SJ-6 04B)
1 37180U 10051B   26132.98442756 -.00000277  00000+0 -17648-4 0  9992
2 37180  97.8736 138.0369 0012624  65.5595 294.6943 14.99259741850406
FENGYUN 3B              
1 37214U 10059A   26132.95632008 -.00000334  00000+0 -14926-3 0  9995
2 37214  98.9653 178.8164 0020992 287.8189 194.2399 14.14831713802447
COSMO-SKYMED 4          
1 37216U 10060A   26132.93322253  .00000697  00000+0  94080-4 0  9995
2 37216  97.8891 317.0443 0001381  82.7526 277.3844 14.82154983839345
O/OREOS (USA 219)       
1 37224U 10062C   26132.23141581  .00001150  00000+0  11480-3 0  9999
2 37224  71.9684 161.7745 0013096 141.4160 218.7949 14.93590845111272
RESOURCESAT-2           
1 37387U 11015A   26132.89770021  .00000036  00000+0  36447-4 0  9990
2 37387  98.7654 200.5800 0011201   5.6073 354.5227 14.21604213781165
YOUTHSAT                
1 37388U 11015B   26132.92232065  .00000120  00000+0  67960-4 0  9994
2 37388  98.3667 108.5715 0015763  85.7479 329.2874 14.25614861782616
APRIZESAT 6             
1 37793U 11044F   26132.98430985  .00000358  00000+0  58194-4 0  9995
2 37793  98.2385  42.7629 0042657 196.9082 224.9289 14.76865918791957
JUGNU                   
1 37839U 11058B   26131.82540796  .00000374  00000+0  56033-4 0  9993
2 37839  19.9590 169.3361 0018723  35.3987 121.4144 14.13765712753874
SRMSAT                  
1 37841U 11058D   26132.72776162  .00000364  00000+0  53462-4 0  9996
2 37841  19.9726 274.1025 0011685 173.6263 214.7014 14.11567690752800
